{"type": "FeatureCollection", "features": [ {"type": "Feature", "properties": {"norad_id": 34790, "name": "COSMOS 2251 DEB", "group": "cosmos-2251-debris", "lat": -73.99628983564885, "lon": 135.79414856404918, "alt_km": 749.3797028682666, "timestamp": "2025-12-20T03:42:47.789394+00:00", "meta": {"OBJECT_NAME": "COSMOS 2251 DEB", "OBJECT_ID": "1993-036AAT", "EPOCH": "2025-12-19T10:27:01.425024", "MEAN_MOTION": 14.24654608, "ECCENTRICITY": 0.0100536, "INCLINATION": 74.0541, "RA_OF_ASC_NODE": 231.6511, "ARG_OF_PERICENTER": 291.9423, "MEAN_ANOMALY": 249.6439, "EPHEMERIS_TYPE": 0, "CLASSIFICATION_TYPE": "U", "NORAD_CAT_ID": 34790, "ELEMENT_SET_NO": 999, "REV_AT_EPOCH": 86668, "BSTAR": 0.00046846, "MEAN_MOTION_DOT": 1.122e-05, "MEAN_MOTION_DDOT": 0}, "tle": {"line1": "1 34790U 93036AAT 25353.43543316  .00001122  00000+0  46846-3 0  9997", "line2": "2 34790  74.0541 231.6511 0100536 291.9423 249.6439 14.24654608866681"}}, "geometry": {"type": "Point", "coordinates": [135.79414856404918, -73.99628983564885]}}, {"type": "Feature", "properties": {"norad_id": 34792, "name": "COSMOS 2251 DEB", "group": "cosmos-2251-debris", "lat": -25.63796634292271, "lon": 147.72910834507024, "alt_km": 710.345322844134, "timestamp": "2025-12-20T03:42:47.789404+00:00", "meta": {"OBJECT_NAME": "COSMOS 2251 DEB", "OBJECT_ID": "1993-036AAV", "EPOCH": "2025-12-19T15:12:37.052352", "MEAN_MOTION": 14.56007862, "ECCENTRICITY": 0.0012439, "INCLINATION": 74.017, "RA_OF_ASC_NODE": 156.624, "ARG_OF_PERICENTER": 251.1065, "MEAN_ANOMALY": 232.5581, "EPHEMERIS_TYPE": 0, "CLASSIFICATION_TYPE": "U", "NORAD_CAT_ID": 34792, "ELEMENT_SET_NO": 999, "REV_AT_EPOCH": 87750, "BSTAR": 0.00069351, "MEAN_MOTION_DOT": 3.027e-05, "MEAN_MOTION_DDOT": 0}, "tle": {"line1": "1 34792U 93036AAV 25353.63376218  .00003027  00000+0  69351-3 0  9998", "line2": "2 34792  74.0170 156.6240 0012439 251.1065 232.5581 14.56007862877501"}}, "geometry": {"type": "Point", "coordinates": [147.72910834507024, -25.63796634292271]}}, {"type": "Feature", "properties": {"norad_id": 34793, "name": "COSMOS 2251 DEB", "group": "cosmos-2251-debris", "lat": 8.887605194349991, "lon": -120.76028716158137, "alt_km": 730.2437137358065, "timestamp": "2025-12-20T03:42:47.789415+00:00", "meta": {"OBJECT_NAME": "COSMOS 2251 DEB", "OBJECT_ID": "1993-036AAW", "EPOCH": "2025-12-19T19:52:48.722880", "MEAN_MOTION": 14.38655251, "ECCENTRICITY": 0.0050601, "INCLINATION": 74.0021, "RA_OF_ASC_NODE": 237.2712, "ARG_OF_PERICENTER": 29.5633, "MEAN_ANOMALY": 90.3069, "EPHEMERIS_TYPE": 0, "CLASSIFICATION_TYPE": "U", "NORAD_CAT_ID": 34793, "ELEMENT_SET_NO": 999, "REV_AT_EPOCH": 87432, "BSTAR": 0.00017265, "MEAN_MOTION_DOT": 5.11e-06, "MEAN_MOTION_DDOT": 0}, "tle": {"line1": "1 34793U 93036AAW 25353.82834170  .00000511  00000+0  17265-3 0  9998", "line2": "2 34793  74.0021 237.2712 0050601  29.5633  90.3069 14.38655251874327"}}, "geometry": {"type": "Point", "coordinates": [-120.76028716158137, 8.887605194349991]}}, {"type": "Feature", "properties": {"norad_id": 34796, "name": "COSMOS 2251 DEB", "group": "cosmos-2251-debris", "lat": 12.246818454738648, "lon": -153.9935012439591, "alt_km": 705.6653223830026, "timestamp": "2025-12-20T03:42:47.789425+00:00", "meta": {"OBJECT_NAME": "COSMOS 2251 DEB", "OBJECT_ID": "1993-036AAZ", "EPOCH": "2025-12-19T08:34:23.356992", "MEAN_MOTION": 14.48719322, "ECCENTRICITY": 0.0100258, "INCLINATION": 74.0291, "RA_OF_ASC_NODE": 203.9373, "ARG_OF_PERICENTER": 304.5968, "MEAN_ANOMALY": 229.5737, "EPHEMERIS_TYPE": 0, "CLASSIFICATION_TYPE": "U", "NORAD_CAT_ID": 34796, "ELEMENT_SET_NO": 999, "REV_AT_EPOCH": 88123, "BSTAR": 0.00040539, "MEAN_MOTION_DOT": 1.598e-05, "MEAN_MOTION_DDOT": 0}, "tle": {"line1": "1 34796U 93036AAZ 25353.35721478  .00001598  00000+0  40539-3 0  9991", "line2": "2 34796  74.0291 203.9373 0100258 304.5968 229.5737 14.48719322881230"}}, "geometry": {"type": "Point", "coordinates": [-153.9935012439591, 12.246818454738648]}}, {"type": "Feature", "properties": {"norad_id": 34797, "name": "COSMOS 2251 DEB", "group": "cosmos-2251-debris", "lat": -19.278872207298978, "lon": 80.40141768307166, "alt_km": 793.3572144049085, "timestamp": "2025-12-20T03:42:47.789435+00:00", "meta": {"OBJECT_NAME": "COSMOS 2251 DEB", "OBJECT_ID": "1993-036ABA", "EPOCH": "2025-12-18T13:32:08.695392", "MEAN_MOTION": 14.42903821, "ECCENTRICITY": 0.00713736, "INCLINATION": 73.9783, "RA_OF_ASC_NODE": 89.1324, "ARG_OF_PERICENTER": 201.7042, "MEAN_ANOMALY": 158.1087, "EPHEMERIS_TYPE": 0, "CLASSIFICATION_TYPE": "U", "NORAD_CAT_ID": 34797, "ELEMENT_SET_NO": 999, "REV_AT_EPOCH": 87499, "BSTAR": 0.0016985088, "MEAN_MOTION_DOT": 5.83e-05, "MEAN_MOTION_DDOT": 0}, "tle": {"line1": "1 34797U 93036ABA 25352.56398953  .00005830  00000+0  16985-2 0  9992", "line2": "2 34797  73.9783  89.1324 0071373 201.7042 158.1087 14.42903821874994"}}, "geometry": {"type": "Point", "coordinates": [80.40141768307166, -19.278872207298978]}}, {"type": "Feature", "properties": {"norad_id": 34814, "name": "COSMOS 2251 DEB", "group": "cosmos-2251-debris", "lat": 15.820175859641955, "lon": 126.99013058034868, "alt_km": 736.8037101611299, "timestamp": "2025-12-20T03:42:47.789445+00:00", "meta": {"OBJECT_NAME": "COSMOS 2251 DEB", "OBJECT_ID": "1993-036ABD", "EPOCH": "2025-12-19T05:31:29.279136", "MEAN_MOTION": 14.36920204, "ECCENTRICITY": 0.0055801, "INCLINATION": 73.8955, "RA_OF_ASC_NODE": 313.3995, "ARG_OF_PERICENTER": 201.6283, "MEAN_ANOMALY": 221.5963, "EPHEMERIS_TYPE": 0, "CLASSIFICATION_TYPE": "U", "NORAD_CAT_ID": 34814, "ELEMENT_SET_NO": 999, "REV_AT_EPOCH": 87426, "BSTAR": 0.00051306, "MEAN_MOTION_DOT": 1.519e-05, "MEAN_MOTION_DDOT": 0}, "tle": {"line1": "1 34814U 93036ABD 25353.23019999  .00001519  00000+0  51306-3 0  9994", "line2": "2 34814  73.8955 313.3995 0055801 201.6283 221.5963 14.36920204874269"}}, "geometry": {"type": "Point", "coordinates": [126.99013058034868, 15.820175859641955]}}, {"type": "Feature", "properties": {"norad_id": 34815, "name": "COSMOS 2251 DEB", "group": "cosmos-2251-debris", "lat": -14.629538432756764, "lon": -137.04135310662636, "alt_km": 612.1940010012149, "timestamp": "2025-12-20T03:42:47.789456+00:00", "meta": {"OBJECT_NAME": "COSMOS 2251 DEB", "OBJECT_ID": "1993-036ABE", "EPOCH": "2025-12-18T19:18:00.804672", "MEAN_MOTION": 14.78381358, "ECCENTRICITY": 0.00588322, "INCLINATION": 74.0448, "RA_OF_ASC_NODE": 229.8924, "ARG_OF_PERICENTER": 297.7055, "MEAN_ANOMALY": 61.8158, "EPHEMERIS_TYPE": 0, "CLASSIFICATION_TYPE": "U", "NORAD_CAT_ID": 34815, "ELEMENT_SET_NO": 999, "REV_AT_EPOCH": 88717, "BSTAR": 0.00057176536, "MEAN_MOTION_DOT": 4.252e-05, "MEAN_MOTION_DDOT": 0}, "tle": {"line1": "1 34815U 93036ABE 25352.80417598  .00004252  00000+0  57177-3 0  9993", "line2": "2 34815  74.0448 229.8924 0058832 297.7055  61.8158 14.78381358887175"}}, "geometry": {"type": "Point", "coordinates": [-137.04135310662636, -14.629538432756764]}}, {"type": "Feature", "properties": {"norad_id": 34816, "name": "COSMOS 2251 DEB", "group": "cosmos-2251-debris", "lat": -21.548836354149767, "lon": 124.46864183795623, "alt_km": 1265.174154328044, "timestamp": "2025-12-20T03:42:47.789466+00:00", "meta": {"OBJECT_NAME": "COSMOS 2251 DEB", "OBJECT_ID": "1993-036ABF", "EPOCH": "2025-12-19T19:45:52.299072", "MEAN_MOTION": 13.58341455, "ECCENTRICITY": 0.0373207, "INCLINATION": 73.8867, "RA_OF_ASC_NODE": 131.5634, "ARG_OF_PERICENTER": 194.8145, "MEAN_ANOMALY": 321.2377, "EPHEMERIS_TYPE": 0, "CLASSIFICATION_TYPE": "U", "NORAD_CAT_ID": 34816, "ELEMENT_SET_NO": 999, "REV_AT_EPOCH": 82879, "BSTAR": 0.00094698, "MEAN_MOTION_DOT": 1.062e-05, "MEAN_MOTION_DDOT": 0}, "tle": {"line1": "1 34816U 93036ABF 25353.82352198  .00001062  00000+0  94698-3 0  9996", "line2": "2 34816  73.8867 131.5634 0373207 194.8145 321.2377 13.58341455828798"}}, "geometry": {"type": "Point", "coordinates": [124.46864183795623, -21.548836354149767]}}, {"type": "Feature", "properties": {"norad_id": 34818, "name": "COSMOS 2251 DEB", "group": "cosmos-2251-debris", "lat": -53.446909801574904, "lon": 126.01750997630482, "alt_km": 784.0319233889122, "timestamp": "2025-12-20T03:42:47.789476+00:00", "meta": {"OBJECT_NAME": "COSMOS 2251 DEB", "OBJECT_ID": "1993-036ABH", "EPOCH": "2025-12-18T20:48:35.786304", "MEAN_MOTION": 14.3697434, "ECCENTRICITY": 0.00244833, "INCLINATION": 74.036, "RA_OF_ASC_NODE": 285.6723, "ARG_OF_PERICENTER": 359.9167, "MEAN_ANOMALY": 58.515, "EPHEMERIS_TYPE": 0, "CLASSIFICATION_TYPE": "U", "NORAD_CAT_ID": 34818, "ELEMENT_SET_NO": 999, "REV_AT_EPOCH": 87458, "BSTAR": 0.00016248256, "MEAN_MOTION_DOT": 4.57e-06, "MEAN_MOTION_DDOT": 0}, "tle": {"line1": "1 34818U 93036ABH 25352.86708086  .00000457  00000+0  16248-3 0  9994", "line2": "2 34818  74.0360 285.6723 0024483 359.9167  58.5150 14.36974340874587"}}, "geometry": {"type": "Point", "coordinates": [126.01750997630482, -53.446909801574904]}}, {"type": "Feature", "properties": {"norad_id": 34819, "name": "COSMOS 2251 DEB", "group": "cosmos-2251-debris", "lat": 22.91323067681813, "lon": -58.55464139947546, "alt_km": 675.0289313168214, "timestamp": "2025-12-20T03:42:47.789486+00:00", "meta": {"OBJECT_NAME": "COSMOS 2251 DEB", "OBJECT_ID": "1993-036ABJ", "EPOCH": "2025-12-19T10:51:51.426720", "MEAN_MOTION": 14.64061618, "ECCENTRICITY": 0.0015559, "INCLINATION": 74.0175, "RA_OF_ASC_NODE": 129.7528, "ARG_OF_PERICENTER": 224.5883, "MEAN_ANOMALY": 192.9027, "EPHEMERIS_TYPE": 0, "CLASSIFICATION_TYPE": "U", "NORAD_CAT_ID": 34819, "ELEMENT_SET_NO": 999, "REV_AT_EPOCH": 88327, "BSTAR": 0.0010599, "MEAN_MOTION_DOT": 5.546e-05, "MEAN_MOTION_DDOT": 0}, "tle": {"line1": "1 34819U 93036ABJ 25353.45267855  .00005546  00000+0  10599-2 0  9991", "line2": "2 34819  74.0175 129.7528 0015559 224.5883 192.9027 14.64061618883277"}}, "geometry": {"type": "Point", "coordinates": [-58.55464139947546, 22.91323067681813]}}]}